line1,line2,validFromUtcTime
1 00000U 00000E   26001.00000000  .00000000  00000-0  27772-4 0    01,2 00000  88.8731 120.3345 0010054 270.2993 254.6293 13.55315717    06,2026-01-01T00:00:00Z
1 00000U 00000E   26002.00000000  .00000000  00000-0  27772-4 0    02,2 00000  88.8731 120.2199 0010054 267.3894  93.7643 13.55315755    02,2026-01-02T00:00:00Z
